[{"OBJECT_NAME":"GPM-CORE","OBJECT_ID":"2014-009C","EPOCH":"2026-03-09T23:15:36.630144","MEAN_MOTION":15.44720121,"ECCENTRICITY":0.00123946,"INCLINATION":64.9727,"RA_OF_ASC_NODE":280.5513,"ARG_OF_PERICENTER":266.0432,"MEAN_ANOMALY":93.9292,"EPHEMERIS_TYPE":0,"CLASSIFICATION_TYPE":"U","NORAD_CAT_ID":39574,"ELEMENT_SET_NO":999,"REV_AT_EPOCH":68248,"BSTAR":0.00019317886,"MEAN_MOTION_DOT":8.85e-5,"MEAN_MOTION_DDOT":0},{"OBJECT_NAME":"OBJECT A","OBJECT_ID":"2024-016A","EPOCH":"2026-03-09T23:08:49.859808","MEAN_MOTION":15.48922607,"ECCENTRICITY":0.00067805,"INCLINATION":97.4468,"RA_OF_ASC_NODE":160.686,"ARG_OF_PERICENTER":66.6312,"MEAN_ANOMALY":293.5651,"EPHEMERIS_TYPE":0,"CLASSIFICATION_TYPE":"U","NORAD_CAT_ID":58820,"ELEMENT_SET_NO":999,"REV_AT_EPOCH":11868,"BSTAR":0.00061930458,"MEAN_MOTION_DOT":0.00033448,"MEAN_MOTION_DDOT":0}]
